NORAD_CAT_ID,OBJECT_NAME,OBJECT_TYPE,EPOCH,MEAN_MOTION,ECCENTRICITY,INCLINATION,RA_OF_ASC_NODE,ARG_OF_PERICENTER,MEAN_ANOMALY,BSTAR,MEAN_MOTION_DOT,MEAN_MOTION_DDOT,TLE_LINE0,TLE_LINE1,TLE_LINE2,SEMIMAJOR_AXIS,PERIOD,APOGEE,PERIGEE,DECAYED
53257.0,STARLINK-4144,PAYLOAD,2024-05-23 15:10:15,15.08843965,0.0001067,53.2174,254.7892,84.8654,275.246,0.00010833,1.437e-05,0.0,0 STARLINK-4144,1 53257U 22086R   24144.63212656  .00001437  00000-0  10833-3 0  9999,2 53257  53.2174 254.7892 0001067  84.8654 275.2460 15.08843965101997,6917.868,95.437,540.471,538.995,0.0
53257.0,STARLINK-4144,PAYLOAD,2024-05-24 13:25:39,15.08847209,0.0001276,53.2177,250.627,75.5511,284.5623,0.00017314,2.469e-05,0.0,0 STARLINK-4144,1 53257U 22086R   24145.55948547  .00002469  00000-0  17314-3 0  9993,2 53257  53.2177 250.6270 0001276  75.5511 284.5623 15.08847209102312,6917.858,95.437,540.606,538.841,0.0
53257.0,STARLINK-4144,PAYLOAD,2024-05-24 16:36:25,15.08850235,0.0001189,53.2175,250.0276,96.1916,263.9212,0.00024686,3.644e-05,0.0,0 STARLINK-4144,1 53257U 22086R   24145.69196240  .00003644  00000-0  24686-3 0  9999,2 53257  53.2175 250.0276 0001189  96.1916 263.9212 15.08850235102151,6917.849,95.437,540.537,538.892,0.0
53257.0,STARLINK-4144,PAYLOAD,2024-05-25 13:16:27,15.08810557,0.0001059,53.2166,246.1691,66.6478,293.4626,-0.00041204,-6.834e-05,0.0,0 STARLINK-4144,1 53257U 22086R   24146.55310089 -.00006834  00000-0 -41204-3 0  9995,2 53257  53.2166 246.1691 0001059  66.6478 293.4626 15.08810557102283,6917.97,95.439,540.568,539.103,0.0
53257.0,STARLINK-4144,PAYLOAD,2024-05-26 13:07:13,15.08841671,0.0001049,53.216,241.7067,82.9822,277.129,3.2935e-05,2.36e-06,0.0,0 STARLINK-4144,1 53257U 22086R   24147.54668851  .00000236  00000-0  32935-4 0  9998,2 53257  53.2160 241.7067 0001049  82.9822 277.1290 15.08841671102432,6917.875,95.437,540.466,539.015,0.0
53257.0,STARLINK-4144,PAYLOAD,2024-05-27 12:58:01,15.08836293,0.0001135,53.2157,237.2421,88.6942,271.418,0.00014462,2.014e-05,0.0,0 STARLINK-4144,1 53257U 22086R   24148.54029288  .00002014  00000-0  14462-3 0  9994,2 53257  53.2157 237.2421 0001135  88.6942 271.4180 15.08836293102589,6917.892,95.438,540.542,538.972,0.0
53257.0,STARLINK-4144,PAYLOAD,2024-05-27 22:30:20,15.08838252,0.000113,53.2156,235.4567,85.4265,274.6856,0.00013228,1.818e-05,0.0,0 STARLINK-4144,1 53257U 22086R   24148.93773241  .00001818  00000-0  13228-3 0  9992,2 53257  53.2156 235.4567 0001130  85.4265 274.6856 15.08838252102826,6917.886,95.438,540.532,538.969,0.0
53257.0,STARLINK-4144,PAYLOAD,2024-05-28 12:48:48,15.08840775,0.0001085,53.2152,232.7804,89.7829,270.3287,0.0001035,1.36e-05,0.0,0 STARLINK-4144,1 53257U 22086R   24149.53389076  .00001360  00000-0  10350-3 0  9993,2 53257  53.2152 232.7804 0001085  89.7829 270.3287 15.08840775102912,6917.878,95.438,540.494,538.992,0.0
53257.0,STARLINK-4144,PAYLOAD,2024-05-29 12:39:35,15.08841179,0.0001032,53.2161,228.3235,94.4695,265.6415,0.00012701,1.734e-05,0.0,0 STARLINK-4144,1 53257U 22086R   24150.52749312  .00001734  00000-0  12701-3 0  9994,2 53257  53.2161 228.3235 0001032  94.4695 265.6415 15.08841179102882,6917.877,95.437,540.456,539.028,0.0
53257.0,STARLINK-4144,PAYLOAD,2024-05-29 14:14:58,15.08841503,0.0001037,53.2161,228.0262,94.9971,265.1139,0.00012554,1.711e-05,0.0,0 STARLINK-4144,1 53257U 22086R   24150.59373281  .00001711  00000-0  12554-3 0  9990,2 53257  53.2161 228.0262 0001037  94.9971 265.1139 15.08841503103077,6917.876,95.437,540.458,539.023,0.0
53257.0,STARLINK-4144,PAYLOAD,2024-05-30 14:05:45,15.08849206,0.0001116,53.2164,223.5642,90.2171,269.8949,0.00016865,2.398e-05,0.0,0 STARLINK-4144,1 53257U 22086R   24151.58732735  .00002398  00000-0  16865-3 0  9994,2 53257  53.2164 223.5642 0001116  90.2171 269.8949 15.08849206103226,6917.852,95.437,540.489,538.945,0.0
53257.0,STARLINK-4144,PAYLOAD,2024-05-31 10:45:45,15.08848851,0.0001229,53.216,219.6999,84.3047,275.8085,0.00016936,2.409e-05,0.0,0 STARLINK-4144,1 53257U 22086R   24152.44844557  .00002409  00000-0  16936-3 0  9998,2 53257  53.2160 219.6999 0001229  84.3047 275.8085 15.08848851103351,6917.853,95.437,540.569,538.868,0.0
53257.0,STARLINK-4144,PAYLOAD,2024-05-31 21:53:27,15.08851288,0.0001228,53.2157,217.619,83.1684,276.9448,0.00017041,2.426e-05,0.0,0 STARLINK-4144,1 53257U 22086R   24152.91212205  .00002426  00000-0  17041-3 0  9996,2 53257  53.2157 217.6190 0001228  83.1684 276.9448 15.08851288103422,6917.846,95.437,540.56,538.861,0.0
53257.0,STARLINK-4144,PAYLOAD,2024-06-01 10:36:33,15.08836262,0.0001431,53.2164,215.2377,94.8949,265.2207,1.9588e-06,-2.57e-06,0.0,0 STARLINK-4144,1 53257U 22086R   24153.44205089 -.00000257  00000-0  19588-5 0  9998,2 53257  53.2164 215.2377 0001431  94.8949 265.2207 15.08836262103328,6917.892,95.438,540.747,538.767,0.0
53257.0,STARLINK-4144,PAYLOAD,2024-06-01 13:47:19,15.08836367,0.0001581,53.2188,214.6431,114.3389,245.7768,-7.0207e-05,-1.405e-05,0.0,0 STARLINK-4144,1 53257U 22086R   24153.57453071 -.00001405  00000-0 -70207-4 0  9999,2 53257  53.2188 214.6431 0001581 114.3389 245.7768 15.08836367103523,6917.891,95.438,540.85,538.663,0.0
53257.0,STARLINK-4144,PAYLOAD,2024-06-02 10:27:20,15.08838792,0.0001235,53.2163,210.7803,87.3815,272.7318,9.2438e-05,1.184e-05,0.0,0 STARLINK-4144,1 53257U 22086R   24154.43565057  .00001184  00000-0  92438-4 0  9995,2 53257  53.2163 210.7803 0001235  87.3815 272.7318 15.08838792103654,6917.884,95.438,540.603,538.895,0.0
53257.0,STARLINK-4144,PAYLOAD,2024-06-03 03:56:34,15.08835792,0.0001371,53.2167,207.5092,91.7265,268.3884,0.00017937,2.568e-05,0.0,0 STARLINK-4144,1 53257U 22086R   24155.16429356  .00002568  00000-0  17937-3 0  9994,2 53257  53.2167 207.5092 0001371  91.7265 268.3884 15.08835792103589,6917.893,95.438,540.707,538.81,0.0
53257.0,STARLINK-4144,PAYLOAD,2024-06-03 10:18:07,15.08835665,0.0001387,53.2163,206.3196,90.752,269.3631,0.00015787,2.225e-05,0.0,0 STARLINK-4144,1 53257U 22086R   24155.42925651  .00002225  00000-0  15787-3 0  9993,2 53257  53.2163 206.3196 0001387  90.7520 269.3631 15.08835665103802,6917.894,95.438,540.718,538.799,0.0
53257.0,STARLINK-4144,PAYLOAD,2024-06-03 19:50:26,15.08842549,0.0001341,53.2164,204.5357,89.3697,270.7449,0.00017199,2.451e-05,0.0,0 STARLINK-4144,1 53257U 22086R   24155.82669355  .00002451  00000-0  17199-3 0  9993,2 53257  53.2164 204.5357 0001341  89.3697 270.7449 15.08842549103869,6917.873,95.437,540.665,538.81,0.0
53257.0,STARLINK-4144,PAYLOAD,2024-06-04 10:08:54,15.08842895,0.0001264,53.2134,201.8564,82.9751,277.1385,0.00014562,2.031e-05,0.0,0 STARLINK-4144,1 53257U 22086R   24156.42285498  .00002031  00000-0  14562-3 0  9997,2 53257  53.2134 201.8564 0001264  82.9751 277.1385 15.08842895103774,6917.872,95.437,540.611,538.862,0.0
53257.0,STARLINK-4144,PAYLOAD,2024-06-04 19:41:13,15.08847847,0.0001252,53.2136,200.0726,75.8871,284.2261,0.00019184,2.767e-05,0.0,0 STARLINK-4144,1 53257U 22086R   24156.82029125  .00002767  00000-0  19184-3 0  9995,2 53257  53.2136 200.0726 0001252  75.8871 284.2261 15.08847847104010,6917.856,95.437,540.588,538.855,0.0
53257.0,STARLINK-4144,PAYLOAD,2024-06-05 09:59:41,15.0884122,0.0001304,53.2147,197.3991,87.6533,272.4608,0.00011978,1.619e-05,0.0,0 STARLINK-4144,1 53257U 22086R   24157.41645498  .00001619  00000-0  11978-3 0  9996,2 53257  53.2147 197.3991 0001304  87.6533 272.4608 15.08841220104101,6917.877,95.437,540.644,538.84,0.0
53257.0,STARLINK-4144,PAYLOAD,2024-06-05 19:32:00,15.08847411,0.0001309,53.2148,195.615,87.2689,272.8453,0.00014719,2.056e-05,0.0,0 STARLINK-4144,1 53257U 22086R   24157.81389096  .00002056  00000-0  14719-3 0  9991,2 53257  53.2148 195.6150 0001309  87.2689 272.8453 15.08847411103988,6917.858,95.437,540.628,538.817,0.0
53257.0,STARLINK-4144,PAYLOAD,2024-06-06 08:15:05,15.08840032,0.0001316,53.2139,193.2338,78.4083,281.7057,4.4955e-05,4.28e-06,0.0,0 STARLINK-4144,1 53257U 22086R   24158.34381497  .00000428  00000-0  44955-4 0  9994,2 53257  53.2139 193.2338 0001316  78.4083 281.7057 15.08840032104069,6917.88,95.438,540.656,538.835,0.0
53257.0,STARLINK-4144,PAYLOAD,2024-06-07 08:05:52,15.08841924,0.0001508,53.2161,188.7769,86.0894,274.027,8.9183e-05,1.132e-05,0.0,0 STARLINK-4144,1 53257U 22086R   24159.33741497  .00001132  00000-0  89183-4 0  9999,2 53257  53.2161 188.7769 0001508  86.0894 274.0270 15.08841924104398,6917.875,95.437,540.783,538.696,0.0
53257.0,STARLINK-4144,PAYLOAD,2024-06-07 19:13:34,15.08843432,0.0001384,53.2148,186.6941,84.328,275.7869,6.9896e-05,8.25e-06,0.0,0 STARLINK-4144,1 53257U 22086R   24159.80109384  .00000825  00000-0  69896-4 0  9991,2 53257  53.2148 186.6941 0001384  84.3280 275.7869 15.08843432104280,6917.87,95.437,540.692,538.777,0.0
53257.0,STARLINK-4144,PAYLOAD,2024-06-08 07:56:39,15.08843808,0.0001376,53.2146,184.3142,87.8121,272.3028,0.00016208,2.293e-05,0.0,0 STARLINK-4144,1 53257U 22086R   24160.33101375  .00002293  00000-0  16208-3 0  9992,2 53257  53.2146 184.3142 0001376  87.8121 272.3028 15.08843808104545,6917.869,95.437,540.686,538.782,0.0
53257.0,STARLINK-4144,PAYLOAD,2024-06-08 19:04:21,15.08847555,0.0001392,53.2148,182.2323,89.3763,270.7389,0.0001744,2.489e-05,0.0,0 STARLINK-4144,1 53257U 22086R   24160.79469087  .00002489  00000-0  17440-3 0  9995,2 53257  53.2148 182.2323 0001392  89.3763 270.7389 15.08847555104615,6917.857,95.437,540.685,538.759,0.0
53257.0,STARLINK-4144,PAYLOAD,2024-06-09 04:36:40,15.08838089,0.0001668,53.2164,180.4481,99.727,260.3911,9.5998e-05,1.24e-05,0.0,0 STARLINK-4144,1 53257U 22086R   24161.19213655  .00001240  00000-0  95998-4 0  9997,2 53257  53.2164 180.4481 0001668  99.7270 260.3911 15.08838089104496,6917.886,95.438,540.905,538.597,0.0
53257.0,STARLINK-4144,PAYLOAD,2024-06-09 06:12:03,15.08835106,0.0001619,53.216,180.1506,98.4618,261.6558,4.574e-05,4.4e-06,0.0,0 STARLINK-4144,1 53257U 22086R   24161.25837815  .00000440  00000-0  45740-4 0  9995,2 53257  53.2160 180.1506 0001619  98.4618 261.6558 15.08835106104684,6917.895,95.438,540.88,538.64,0.0
